NORAD_CAT_ID,OBJECT_NAME,OBJECT_TYPE,EPOCH,MEAN_MOTION,ECCENTRICITY,INCLINATION,RA_OF_ASC_NODE,ARG_OF_PERICENTER,MEAN_ANOMALY,BSTAR,MEAN_MOTION_DOT,MEAN_MOTION_DDOT,TLE_LINE0,TLE_LINE1,TLE_LINE2,SEMIMAJOR_AXIS,PERIOD,APOGEE,PERIGEE,DECAYED
56478.0,STARLINK-6041,PAYLOAD,2023-10-31 20:23:45,14.98330183,0.0002722,69.9986,132.4163,259.2677,100.8176,-5.8864e-05,-7.95e-06,0.0,0 STARLINK-6041,1 56478U 23064AG  23304.84983207 -.00000795  00000-0 -58864-4 0  9996,2 56478  69.9986 132.4163 0002722 259.2677 100.8176 14.98330183 27305,6950.192,96.107,573.949,570.165,0.0
56478.0,STARLINK-6041,PAYLOAD,2023-10-31 21:59:53,14.98330759,0.0002929,69.9983,132.2482,267.8826,92.1998,-7.1553e-05,-9.47e-06,0.0,0 STARLINK-6041,1 56478U 23064AG  23304.91659220 -.00000947  00000-0 -71553-4 0  9998,2 56478  69.9983 132.2482 0002929 267.8826  92.1998 14.98330759 26958,6950.191,96.107,574.091,570.02,0.0
56478.0,STARLINK-6041,PAYLOAD,2023-11-01 14:01:13,14.98328884,0.0003042,69.9983,130.5645,268.1897,91.8914,5.6296e-05,5.79e-06,0.0,0 STARLINK-6041,1 56478U 23064AG  23305.58418956  .00000579  00000-0  56296-4 0  9997,2 56478  69.9983 130.5645 0003042 268.1897  91.8914 14.98328884 27051,6950.196,96.107,574.176,569.947,0.0
56478.0,STARLINK-6041,PAYLOAD,2023-11-01 20:25:46,14.98330324,0.0003029,69.9985,129.8913,268.2338,91.8474,6.669e-05,7.03e-06,0.0,0 STARLINK-6041,1 56478U 23064AG  23305.85122840  .00000703  00000-0  66690-4 0  9999,2 56478  69.9985 129.8913 0003029 268.2338  91.8474 14.98330324 27455,6950.192,96.107,574.162,569.952,0.0
56478.0,STARLINK-6041,PAYLOAD,2023-11-01 22:01:54,14.98330897,0.0003024,69.9985,129.723,268.2827,91.7986,7.1547e-05,7.61e-06,0.0,0 STARLINK-6041,1 56478U 23064AG  23305.91798788  .00000761  00000-0  71547-4 0  9997,2 56478  69.9985 129.7230 0003024 268.2827  91.7986 14.98330897 27108,6950.19,96.107,574.157,569.953,0.0
56478.0,STARLINK-6041,PAYLOAD,2023-11-02 14:03:15,14.98328715,0.0003015,69.9984,128.0394,268.4277,91.6537,1.4016e-05,7.4e-07,0.0,0 STARLINK-6041,1 56478U 23064AG  23306.58559080  .00000074  00000-0  14016-4 0  9996,2 56478  69.9984 128.0394 0003015 268.4277  91.6537 14.98328715 27209,6950.197,96.107,574.157,569.966,0.0
56478.0,STARLINK-6041,PAYLOAD,2023-11-02 20:27:47,14.98329462,0.0003012,69.9985,127.3664,268.9677,91.1137,1.8458e-05,1.27e-06,0.0,0 STARLINK-6041,1 56478U 23064AG  23306.85263030  .00000127  00000-0  18458-4 0  9996,2 56478  69.9985 127.3664 0003012 268.9677  91.1137 14.98329462 27603,6950.195,96.107,574.153,569.966,0.0
56478.0,STARLINK-6041,PAYLOAD,2023-11-02 22:03:55,14.98329955,0.0003012,69.9985,127.1981,269.0556,91.0258,2.3094e-05,1.83e-06,0.0,0 STARLINK-6041,1 56478U 23064AG  23306.91938984  .00000183  00000-0  23094-4 0  9994,2 56478  69.9985 127.1981 0003012 269.0556  91.0258 14.98329955 27252,6950.193,96.107,574.151,569.965,0.0
56478.0,STARLINK-6041,PAYLOAD,2023-11-03 14:05:15,14.98332,0.0003013,69.998,125.5144,269.0926,90.9888,-2.1063e-05,-3.44e-06,0.0,0 STARLINK-6041,1 56478U 23064AG  23307.58698918 -.00000344  00000-0 -21063-4 0  9993,2 56478  69.9980 125.5144 0003013 269.0926  90.9888 14.98332000 27355,6950.187,96.107,574.146,569.958,0.0
56478.0,STARLINK-6041,PAYLOAD,2023-11-03 18:53:39,14.98341185,0.0003071,69.998,125.0096,269.752,90.3287,3.9174e-05,3.75e-06,0.0,0 STARLINK-6041,1 56478U 23064AG  23307.78726126  .00000375  00000-0  39174-4 0  9992,2 56478  69.9980 125.0096 0003071 269.7520  90.3287 14.98341185 27741,6950.158,96.106,574.158,569.889,0.0
56478.0,STARLINK-6041,PAYLOAD,2023-11-03 22:05:55,14.98341305,0.0003014,69.998,124.6729,269.9957,90.0856,7.7778e-05,8.35e-06,0.0,0 STARLINK-6041,1 56478U 23064AG  23307.92077930  .00000835  00000-0  77778-4 0  9993,2 56478  69.9980 124.6729 0003014 269.9957  90.0856 14.98341305 27408,6950.158,96.106,574.118,569.928,0.0
56478.0,STARLINK-6041,PAYLOAD,2023-11-04 14:07:17,14.98325354,0.0002989,69.998,122.9896,270.2171,89.8646,-4.7323e-05,-6.58e-06,0.0,0 STARLINK-6041,1 56478U 23064AG  23308.58839148 -.00000658  00000-0 -47323-4 0  9991,2 56478  69.9980 122.9896 0002989 270.2171  89.8646 14.98325354 27507,6950.207,96.107,574.15,569.995,0.0
56478.0,STARLINK-6041,PAYLOAD,2023-11-04 20:31:48,14.98350395,0.0002513,69.998,122.3163,261.4927,98.5948,-0.00047373,-5.744e-05,0.0,0 STARLINK-6041,1 56478U 23064AG  23308.85542683 -.00005744  00000-0 -47373-3 0  9991,2 56478  69.9980 122.3163 0002513 261.4927  98.5948 14.98350395 27901,6950.13,96.106,573.741,570.248,0.0
56478.0,STARLINK-6041,PAYLOAD,2023-11-05 04:32:29,14.98328911,0.0003058,69.9981,121.4747,271.0017,89.0792,-5.1212e-05,-7.04e-06,0.0,0 STARLINK-6041,1 56478U 23064AG  23309.18923021 -.00000704  00000-0 -51212-4 0  9996,2 56478  69.9981 121.4747 0003058 271.0017  89.0792 14.98328911 27958,6950.196,96.107,574.187,569.936,0.0
56478.0,STARLINK-6041,PAYLOAD,2023-11-05 12:33:10,14.98311029,0.0002862,69.9981,120.633,272.2981,87.785,0.00030915,3.596e-05,0.0,0 STARLINK-6041,1 56478U 23064AG  23309.52303453  .00003596  00000-0  30915-3 0  9991,2 56478  69.9981 120.6330 0002862 272.2981  87.7850 14.98311029 28001,6950.252,96.108,574.106,570.127,0.0
56478.0,STARLINK-6041,PAYLOAD,2023-11-05 14:09:17,14.98328388,0.0003016,69.9981,120.4647,269.7839,90.2974,1.239e-05,5.5e-07,0.0,0 STARLINK-6041,1 56478U 23064AG  23309.58978912  .00000055  00000-0  12390-4 0  9990,2 56478  69.9981 120.4647 0003016 269.7839  90.2974 14.98328388 27657,6950.198,96.107,574.159,569.967,0.0
56478.0,STARLINK-6041,PAYLOAD,2023-11-05 18:57:41,14.98331069,0.0003005,69.9982,119.9596,271.5229,88.5586,1.9282e-05,1.37e-06,0.0,0 STARLINK-6041,1 56478U 23064AG  23309.79006726  .00000137  00000-0  19282-4 0  9996,2 56478  69.9982 119.9596 0003005 271.5229  88.5586 14.98331069 28049,6950.19,96.107,574.143,569.966,0.0
56478.0,STARLINK-6041,PAYLOAD,2023-11-05 20:33:49,14.98331446,0.0003003,69.9981,119.7913,271.6857,88.3957,1.4437e-05,7.9e-07,0.0,0 STARLINK-6041,1 56478U 23064AG  23309.85682714  .00000079  00000-0  14437-4 0  9992,2 56478  69.9981 119.7913 0003003 271.6857  88.3957 14.98331446 27694,6950.188,96.107,574.141,569.966,0.0
56478.0,STARLINK-6041,PAYLOAD,2023-11-06 14:11:18,14.98332628,0.0003038,69.9983,117.9398,270.2586,89.8225,9.3946e-05,1.028e-05,0.0,0 STARLINK-6041,1 56478U 23064AG  23310.59118208  .00001028  00000-0  93946-4 0  9994,2 56478  69.9983 117.9398 0003038 270.2586  89.8225 14.98332628 27805,6950.185,96.107,574.161,569.938,0.0
56478.0,STARLINK-6041,PAYLOAD,2023-11-06 18:59:42,14.98333405,0.0003037,69.9985,117.435,269.7264,90.3547,9.6475e-05,1.058e-05,0.0,0 STARLINK-6041,1 56478U 23064AG  23310.79146106  .00001058  00000-0  96475-4 0  9997,2 56478  69.9985 117.4350 0003037 269.7264  90.3547 14.98333405 28196,6950.182,96.107,574.158,569.937,0.0
56478.0,STARLINK-6041,PAYLOAD,2023-11-06 20:35:50,14.98333554,0.0003038,69.9985,117.2667,269.7655,90.3155,9.5984e-05,1.053e-05,0.0,0 STARLINK-6041,1 56478U 23064AG  23310.85822083  .00001053  00000-0  95984-4 0  9998,2 56478  69.9985 117.2667 0003038 269.7655  90.3155 14.98333554 27841,6950.182,96.107,574.158,569.935,0.0
56478.0,STARLINK-6041,PAYLOAD,2023-11-07 11:01:03,14.98324225,0.0002883,69.9986,115.7517,268.483,91.5998,-6.6463e-05,-8.86e-06,0.0,0 STARLINK-6041,1 56478U 23064AG  23311.45907218 -.00000886  00000-0 -66463-4 0  9994,2 56478  69.9986 115.7517 0002883 268.4830  91.5998 14.98324225 28290,6950.211,96.107,574.079,570.072,0.0
56478.0,STARLINK-6041,PAYLOAD,2023-11-07 14:13:20,14.98322917,0.0002916,69.9985,115.4151,268.5456,91.5369,-7.5465e-05,-9.93e-06,0.0,0 STARLINK-6041,1 56478U 23064AG  23311.59259350 -.00000993  00000-0 -75465-4 0  9997,2 56478  69.9985 115.4151 0002916 268.5456  91.5369 14.98322917 27952,6950.215,96.107,574.106,570.053,0.0
56478.0,STARLINK-6041,PAYLOAD,2023-11-07 20:37:51,14.98329379,0.000269,70.0,114.7427,261.9143,98.1711,2.8678e-05,2.49e-06,0.0,0 STARLINK-6041,1 56478U 23064AG  23311.85962700  .00000249  00000-0  28678-4 0  9992,2 56478  70.0000 114.7427 0002690 261.9143  98.1711 14.98329379 28358,6950.195,96.107,573.929,570.19,0.0
56478.0,STARLINK-6041,PAYLOAD,2023-11-08 14:15:20,14.98330606,0.00031,69.999,112.8895,269.8706,90.2097,-5.9286e-05,-8e-06,0.0,0 STARLINK-6041,1 56478U 23064AG  23312.59398670 -.00000800  00000-0 -59286-4 0  9997,2 56478  69.9990 112.8895 0003100 269.8706  90.2097 14.98330606 28108,6950.191,96.107,574.211,569.901,0.0
56478.0,STARLINK-6041,PAYLOAD,2023-11-08 20:39:52,14.98332166,0.0003084,69.999,112.2167,268.2541,91.8265,-6.308e-05,-8.46e-06,0.0,0 STARLINK-6041,1 56478U 23064AG  23312.86102548 -.00000846  00000-0 -63080-4 0  9991,2 56478  69.9990 112.2167 0003084 268.2541  91.8265 14.98332166 28146,6950.186,96.107,574.195,569.908,0.0
56478.0,STARLINK-6041,PAYLOAD,2023-11-09 12:41:13,14.98308064,0.0002998,69.9987,110.533,267.2356,92.846,0.00040393,4.727e-05,0.0,0 STARLINK-6041,1 56478U 23064AG  23313.52862937  .00004727  00000-0  40393-3 0  9991,2 56478  69.9987 110.5330 0002998 267.2356  92.8460 14.98308064 28600,6950.261,96.108,574.209,570.042,0.0
56478.0,STARLINK-6041,PAYLOAD,2023-11-09 14:17:21,14.98326505,0.0003149,69.9987,110.3647,268.8105,91.2693,8.7987e-05,9.57e-06,0.0,0 STARLINK-6041,1 56478U 23064AG  23313.59538525  .00000957  00000-0  87987-4 0  9993,2 56478  69.9987 110.3647 0003149 268.8105  91.2693 14.98326505 28259,6950.204,96.107,574.257,569.88,0.0
56478.0,STARLINK-6041,PAYLOAD,2023-11-09 15:53:29,14.98325105,0.0003178,69.999,110.1968,269.9371,90.1424,7.0803e-05,7.52e-06,0.0,0 STARLINK-6041,1 56478U 23064AG  23313.66214661  .00000752  00000-0  70803-4 0  9995,2 56478  69.9990 110.1968 0003178 269.9371  90.1424 14.98325105 28622,6950.208,96.107,574.282,569.864,0.0
56478.0,STARLINK-6041,PAYLOAD,2023-11-09 19:05:45,14.98339364,0.0003043,69.9987,109.86,266.595,93.4861,-0.00010047,-1.292e-05,0.0,0 STARLINK-6041,1 56478U 23064AG  23313.79566179 -.00001292  00000-0 -10047-3 0  9998,2 56478  69.9987 109.8600 0003043 266.5950  93.4861 14.98339364 28648,6950.164,96.106,574.144,569.914,0.0
